GLOBALSTAR M057 [-]     
1 25943U 99058A   23236.53668725 -.00000139  00000+0 -42118-3 0  9995
2 25943  51.9987  68.7008 0003447  87.1775 272.9469 12.24771601 85739
GLOBALSTAR M059 [-]     
1 25944U 99058B   23236.95025670 -.00000061  00000+0  31442-3 0  9999
2 25944  51.9994 198.6907 0000484  61.0864 333.4898 11.99953230494540
GLOBALSTAR M056 [-]     
1 25945U 99058C   23236.39042491 -.00000035  00000+0  61094-3 0  9995
2 25945  51.9938 219.1968 0000987 300.1603 227.4692 12.04768088 82731
GLOBALSTAR M031 [-]     
1 25946U 99058D   23236.17621839 -.00000059  00000+0  31916-3 0  9997
2 25946  51.9957 151.7631 0001342 291.7482 214.4774 12.15994672 83883
GLOBALSTAR M039 [-]     
1 25961U 99062A   23236.88635882 -.00000110  00000+0 -37370-4 0  9990
2 25961  51.9839 125.8492 0002824 334.5167  25.5560 12.62268648 96571
GLOBALSTAR M034 [-]     
1 25962U 99062B   23236.57177397 -.00000074  00000+0  10559-3 0  9996
2 25962  51.9873 293.7580 0014091 228.5028 280.7638 11.79414218 60205
GLOBALSTAR M029 [-]     
1 25963U 99062C   23236.76766303 -.00000090  00000+0 -46766-4 0  9998
2 25963  51.9798  87.7861 0001806 262.8590 221.1812 11.99866711 89609
GLOBALSTAR M061 [-]     
1 25964U 99062D   23236.56987583 -.00000085  00000+0 -81704-4 0  9997
2 25964  51.9787 109.0156 0005810 153.1302 218.1882 11.76749216 43175
